start=new Date('2021-11-27T00:00:00.000Z').valueOf();
sats=[{"OBJECT_ID":"2020-019V","REV_AT_EPOCH":"9401","DECAY_DATE":null,"MEAN_MOTION":"15.06450185","OBJECT_NAME":"STARLINK-1319","TLE_LINE2":"2 45379  53.0486 347.4146 0003267 279.9818  80.0803 15.06450185 94015","RA_OF_ASC_NODE":"347.4146","LAUNCH_DATE":"2020-03-18","FILE":"3224952","RCS_SIZE":"LARGE","MEAN_ELEMENT_THEORY":"SGP4","SITE":"AFETR","TLE_LINE1":"1 45379U 20019V   21330.75162858  .00007508  00000-0  52171-3 0  9990","GP_ID":"190556933","MEAN_ANOMALY":"80.0803","CLASSIFICATION_TYPE":"U","EPOCH":"2021-11-26T18:02:20.709312","MEAN_MOTION_DDOT":"0.0000000000000","BSTAR":"0.00052171000000","COUNTRY_CODE":"US","EPHEMERIS_TYPE":"0","ECCENTRICITY":"0.00032670","SEMIMAJOR_AXIS":"6925.195","MEAN_MOTION_DOT":"0.00007508","OBJECT_TYPE":"PAYLOAD","CENTER_NAME":"EARTH","APOAPSIS":"549.322","TIME_SYSTEM":"UTC","ELEMENT_SET_NO":"999","REF_FRAME":"TEME","ARG_OF_PERICENTER":"279.9818","NORAD_CAT_ID":"45379","INCLINATION":"53.0486","PERIAPSIS":"544.797","PERIOD":"95.589"},{"NORAD_CAT_ID":"45380","INCLINATION":"53.0536","PERIOD":"95.592","PERIAPSIS":"546.572","REF_FRAME":"TEME","ARG_OF_PERICENTER":"92.6039","APOAPSIS":"547.889","TIME_SYSTEM":"UTC","ELEMENT_SET_NO":"999","MEAN_MOTION_DOT":"0.00000174","OBJECT_TYPE":"PAYLOAD","CENTER_NAME":"EARTH","EPHEMERIS_TYPE":"0","ECCENTRICITY":"0.00009510","SEMIMAJOR_AXIS":"6925.366","EPOCH":"2021-11-26T10:02:04.919136","CLASSIFICATION_TYPE":"U","BSTAR":"0.00003059700000","COUNTRY_CODE":"US","MEAN_MOTION_DDOT":"0.0000000000000","GP_ID":"190528868","MEAN_ANOMALY":"267.5059","RCS_SIZE":"LARGE","MEAN_ELEMENT_THEORY":"SGP4","RA_OF_ASC_NODE":"328.9168","FILE":"3224704","LAUNCH_DATE":"2020-03-18","SITE":"AFETR","TLE_LINE1":"1 45380U 20019W   21330.41811249  .00000174  00000-0  30597-4 0  9991","MEAN_MOTION":"15.06394421","REV_AT_EPOCH":"9423","OBJECT_ID":"2020-019W","DECAY_DATE":null,"OBJECT_NAME":"STARLINK-1207","TLE_LINE2":"2 45380  53.0536 328.9168 0000951  92.6039 267.5059 15.06394421 94232"},{"RA_OF_ASC_NODE":"326.4750","FILE":"3224952","LAUNCH_DATE":"2020-03-18","RCS_SIZE":"LARGE","MEAN_ELEMENT_THEORY":"SGP4","TLE_LINE1":"1 45381U 20019X   21330.95994276 -.00000622  00000-0 -22819-4 0  9991","SITE":"AFETR","REV_AT_EPOCH":"9431","OBJECT_ID":"2020-019X","DECAY_DATE":null,"MEAN_MOTION":"15.06397784","OBJECT_NAME":"STARLINK-1258","TLE_LINE2":"2 45381  53.0543 326.4750 0001849  55.3636 304.7527 15.06397784 94315","CLASSIFICATION_TYPE":"U","EPOCH":"2021-11-26T23:02:19.054464","MEAN_MOTION_DDOT":"0.0000000000000","BSTAR":"-0.00002281900000","COUNTRY_CODE":"US","MEAN_ANOMALY":"304.7527","GP_ID":"190558435","MEAN_MOTION_DOT":"-0.00000622","OBJECT_TYPE":"PAYLOAD","CENTER_NAME":"EARTH","EPHEMERIS_TYPE":"0","ECCENTRICITY":"0.00018490","SEMIMAJOR_AXIS":"6925.355","NORAD_CAT_ID":"45381","INCLINATION":"53.0543","PERIOD":"95.592","PERIAPSIS":"545.940","TIME_SYSTEM":"UTC","APOAPSIS":"548.501","ELEMENT_SET_NO":"999","REF_FRAME":"TEME","ARG_OF_PERICENTER":"55.3636"},{"TLE_LINE2":"2 45382  53.0553 328.9664 0001955  49.9302 310.1858 15.06397567 94053","OBJECT_NAME":"STARLINK-1264","MEAN_MOTION":"15.06397567","DECAY_DATE":null,"REV_AT_EPOCH":"9405","OBJECT_ID":"2020-019Y","SITE":"AFETR","TLE_LINE1":"1 45382U 20019Y   21330.40706093  .00001584  00000-0  12524-3 0  9997","MEAN_ELEMENT_THEORY":"SGP4","RCS_SIZE":"LARGE","FILE":"3224704","LAUNCH_DATE":"2020-03-18","RA_OF_ASC_NODE":"328.9664","MEAN_ANOMALY":"310.1858","GP_ID":"190528379","COUNTRY_CODE":"US","BSTAR":"0.00012524000000","MEAN_MOTION_DDOT":"0.0000000000000","CLASSIFICATION_TYPE":"U","EPOCH":"2021-11-26T09:46:10.064352","SEMIMAJOR_AXIS":"6925.356","ECCENTRICITY":"0.00019550","EPHEMERIS_TYPE":"0","CENTER_NAME":"EARTH","OBJECT_TYPE":"PAYLOAD","MEAN_MOTION_DOT":"0.00001584","ARG_OF_PERICENTER":"49.9302","REF_FRAME":"TEME","ELEMENT_SET_NO":"999","TIME_SYSTEM":"UTC","APOAPSIS":"548.575","PERIAPSIS":"545.867","PERIOD":"95.592","INCLINATION":"53.0553","NORAD_CAT_ID":"45382"},{"ELEMENT_SET_NO":"999","TIME_SYSTEM":"UTC","APOAPSIS":"548.311","ARG_OF_PERICENTER":"59.4601","REF_FRAME":"TEME","PERIOD":"95.592","PERIAPSIS":"546.147","INCLINATION":"53.0542","NORAD_CAT_ID":"45383","SEMIMAJOR_AXIS":"6925.364","ECCENTRICITY":"0.00015620","EPHEMERIS_TYPE":"0","CENTER_NAME":"EARTH","OBJECT_TYPE":"PAYLOAD","MEAN_MOTION_DOT":"-0.00000322","MEAN_ANOMALY":"300.6542","GP_ID":"190557433","MEAN_MOTION_DDOT":"0.0000000000000","COUNTRY_CODE":"US","BSTAR":"-0.00000269320000","CLASSIFICATION_TYPE":"U","EPOCH":"2021-11-26T16:29:32.876448","TLE_LINE2":"2 45383  53.0542 327.6970 0001562  59.4601 300.6542 15.06395005 94273","OBJECT_NAME":"STARLINK-1266","DECAY_DATE":null,"REV_AT_EPOCH":"9427","OBJECT_ID":"2020-019Z","MEAN_MOTION":"15.06395005","SITE":"AFETR","TLE_LINE1":"1 45383U 20019Z   21330.68718607 -.00000322  00000-0 -26932-5 0  9993","LAUNCH_DATE":"2020-03-18","FILE":"3224952","RA_OF_ASC_NODE":"327.6970","MEAN_ELEMENT_THEORY":"SGP4","RCS_SIZE":"LARGE"},{"TIME_SYSTEM":"UTC","APOAPSIS":"548.376","ELEMENT_SET_NO":"999","REF_FRAME":"TEME","ARG_OF_PERICENTER":"61.9766","NORAD_CAT_ID":"45384","INCLINATION":"53.0554","PERIAPSIS":"546.004","PERIOD":"95.592","EPHEMERIS_TYPE":"0","ECCENTRICITY":"0.00017130","SEMIMAJOR_AXIS":"6925.325","MEAN_MOTION_DOT":"0.00004759","OBJECT_TYPE":"PAYLOAD","CENTER_NAME":"EARTH","GP_ID":"190529368","MEAN_ANOMALY":"298.1397","EPOCH":"2021-11-26T11:27:00.829152","CLASSIFICATION_TYPE":"U","MEAN_MOTION_DDOT":"0.0000000000000","BSTAR":"0.00033813000000","COUNTRY_CODE":"US","OBJECT_ID":"2020-019AA","REV_AT_EPOCH":"9424","DECAY_DATE":null,"MEAN_MOTION":"15.06407703","OBJECT_NAME":"STARLINK-1267","TLE_LINE2":"2 45384  53.0554 328.6346 0001713  61.9766 298.1397 15.06407703 94248","RA_OF_ASC_NODE":"328.6346","FILE":"3224704","LAUNCH_DATE":"2020-03-18","RCS_SIZE":"LARGE","MEAN_ELEMENT_THEORY":"SGP4","SITE":"AFETR","TLE_LINE1":"1 45384U 20019AA  21330.47709293  .00004759  00000-0  33813-3 0  9992"},{"EPHEMERIS_TYPE":"0","ECCENTRICITY":"0.00017120","SEMIMAJOR_AXIS":"6925.379","MEAN_MOTION_DOT":"-0.00000578","OBJECT_TYPE":"PAYLOAD","CENTER_NAME":"EARTH","REF_FRAME":"TEME","ARG_OF_PERICENTER":"60.6640","APOAPSIS":"548.430","TIME_SYSTEM":"UTC","ELEMENT_SET_NO":"999","NORAD_CAT_ID":"45386","INCLINATION":"53.0552","PERIOD":"95.593","PERIAPSIS":"546.059","MEAN_MOTION":"15.06389938","REV_AT_EPOCH":"9423","OBJECT_ID":"2020-019AC","DECAY_DATE":null,"OBJECT_NAME":"STARLINK-1272","TLE_LINE2":"2 45386  53.0552 328.9327 0001712  60.6640 299.4520 15.06389938 94236","RCS_SIZE":"LARGE","MEAN_ELEMENT_THEORY":"SGP4","RA_OF_ASC_NODE":"328.9327","LAUNCH_DATE":"2020-03-18","FILE":"3224704","TLE_LINE1":"1 45386U 20019AC  21330.41443893 -.00000578  00000-0 -19927-4 0  9997","SITE":"AFETR","MEAN_ANOMALY":"299.4520","GP_ID":"190527630","CLASSIFICATION_TYPE":"U","EPOCH":"2021-11-26T09:56:47.523552","BSTAR":"-0.00001992700000","COUNTRY_CODE":"US","MEAN_MOTION_DDOT":"0.0000000000000"},{"ECCENTRICITY":"0.00016970","EPHEMERIS_TYPE":"0","SEMIMAJOR_AXIS":"6925.379","OBJECT_TYPE":"PAYLOAD","MEAN_MOTION_DOT":"0.00001373","CENTER_NAME":"EARTH","ELEMENT_SET_NO":"999","TIME_SYSTEM":"UTC","APOAPSIS":"548.419","ARG_OF_PERICENTER":"55.9707","REF_FRAME":"TEME","INCLINATION":"53.0547","NORAD_CAT_ID":"45387","PERIOD":"95.593","PERIAPSIS":"546.069","DECAY_DATE":null,"OBJECT_ID":"2020-019AD","REV_AT_EPOCH":"9431","MEAN_MOTION":"15.06389990","TLE_LINE2":"2 45387  53.0547 326.4475 0001697  55.9707 304.1443 15.06389990 94316","OBJECT_NAME":"STARLINK-1274","FILE":"3224952","LAUNCH_DATE":"2020-03-18","RA_OF_ASC_NODE":"326.4475","MEAN_ELEMENT_THEORY":"SGP4","RCS_SIZE":"LARGE","TLE_LINE1":"1 45387U 20019AD  21330.96731952  .00001373  00000-0  11109-3 0  9999","SITE":"AFETR","GP_ID":"190556684","MEAN_ANOMALY":"304.1443","CLASSIFICATION_TYPE":"U","EPOCH":"2021-11-26T23:12:56.406528","MEAN_MOTION_DDOT":"0.0000000000000","COUNTRY_CODE":"US","BSTAR":"0.00011109000000"},{"GP_ID":"190529131","MEAN_ANOMALY":"299.4827","CLASSIFICATION_TYPE":"U","EPOCH":"2021-11-26T11:19:02.565408","BSTAR":"0.00013924000000","COUNTRY_CODE":"US","MEAN_MOTION_DDOT":"0.0000000000000","MEAN_MOTION":"15.06403028","REV_AT_EPOCH":"9395","OBJECT_ID":"2020-019AE","DECAY_DATE":null,"OBJECT_NAME":"STARLINK-1280","TLE_LINE2":"2 45388  53.0552 348.6657 0001426  60.6305 299.4827 15.06403028 93958","RCS_SIZE":"LARGE","MEAN_ELEMENT_THEORY":"SGP4","RA_OF_ASC_NODE":"348.6657","LAUNCH_DATE":"2020-03-18","FILE":"3224704","SITE":"AFETR","TLE_LINE1":"1 45388U 20019AE  21330.47155747  .00001793  00000-0  13924-3 0  9991","REF_FRAME":"TEME","ARG_OF_PERICENTER":"60.6305","TIME_SYSTEM":"UTC","APOAPSIS":"548.192","ELEMENT_SET_NO":"999","NORAD_CAT_ID":"45388","INCLINATION":"53.0552","PERIAPSIS":"546.217","PERIOD":"95.592","EPHEMERIS_TYPE":"0","ECCENTRICITY":"0.00014260","SEMIMAJOR_AXIS":"6925.339","MEAN_MOTION_DOT":"0.00001793","OBJECT_TYPE":"PAYLOAD","CENTER_NAME":"EARTH"},{"TLE_LINE1":"1 45389U 20019AF  21330.71667689  .00001325  00000-0  10785-3 0  9995","SITE":"AFETR","LAUNCH_DATE":"2020-03-18","FILE":"3224952","RA_OF_ASC_NODE":"327.5545","MEAN_ELEMENT_THEORY":"SGP4","RCS_SIZE":"LARGE","TLE_LINE2":"2 45389  53.0543 327.5545 0001642  57.9074 302.2075 15.06397884 94280","OBJECT_NAME":"STARLINK-1283","DECAY_DATE":null,"OBJECT_ID":"2020-019AF","REV_AT_EPOCH":"9428","MEAN_MOTION":"15.06397884","MEAN_MOTION_DDOT":"0.0000000000000","COUNTRY_CODE":"US","BSTAR":"0.00010785000000","EPOCH":"2021-11-26T17:12:00.883296","CLASSIFICATION_TYPE":"U","GP_ID":"190558180","MEAN_ANOMALY":"302.2075","CENTER_NAME":"EARTH","OBJECT_TYPE":"PAYLOAD","MEAN_MOTION_DOT":"0.00001325","SEMIMAJOR_AXIS":"6925.355","ECCENTRICITY":"0.00016420","EPHEMERIS_TYPE":"0","PERIOD":"95.592","PERIAPSIS":"546.083","INCLINATION":"53.0543","NORAD_CAT_ID":"45389","ELEMENT_SET_NO":"999","TIME_SYSTEM":"UTC","APOAPSIS":"548.357","ARG_OF_PERICENTER":"57.9074","REF_FRAME":"TEME"}];
